NAME,TYPE,Sector,ADDRESS_AB,CITY,PROVINCE,POSTAL_COD,longitude,latitude
Alberta College of Art and Design,Post Secondary,,,Calgary,AB,,-114.0903742,51.0632961
Nickle,Public School,SE,2500 Lake Bonavista Drive SE,Calgary,AB,T2J2Y6,-114.0614348,50.94073673
Calgary Waldorf,Private School,SW,515 Cougar Ridge Drive SW,Calgary,AB,T3H5G9,-114.2183262,51.07234939
Discovering Choices - Westbrook Outreach,Public School,SW,"3, 1002 37 Street SW",Calgary,AB,T3C1S1,-114.1403068,51.04428799
Dr. George Stanley,Public School,SW,585 Cranston Drive SW,Calgary,AB,T3M0J4,-113.9782889,50.88277715
St. Alphonsus,Separate School,NE,928 Radnor Ave NE,Calgary,AB,T2E5H5,-114.041415,51.06473357
Glenmore Christian Academy Junior High,Private School,SW,16520-24 Street SW,Calgary,AB,T2Y4W2,-114.1152537,50.90397951
Chief Justice Milvain,Public School,NE,3428 42 Street NE,Calgary,AB,T1Y6A3,-113.97219,51.08368605
Glenmore Christian Academy Elementary,Private School,SW,16520 - 24 Street SW,Calgary,AB,T2Y4W2,-114.1152537,50.90397951
Langevin,Public School,NE,107 6A Street NE,Calgary,AB,T2E0B7,-114.0477096,51.05285065
St. Vincent de Paul,Separate School,NW,4525 49 St NW,Calgary,AB,T3A0K4,-114.159751,51.09313088
St. Joan of Arc,Separate School,SW,7970 Wentworth Dr SW,Calgary,AB,T3H0K2,-114.2072404,51.05712474
Marshall Springs,Public School,SW,1100 Everridge Drive SW,Calgary,AB,T2Y4X5,-114.1123004,50.91144484
Huntington Hills,Public School,NW,820 64 Avenue NW,Calgary,AB,T2K0M5,-114.0774569,51.11220898
McKenzie Highlands,Public School,SE,25 McKenzie Towne Drive SE,Calgary,AB,T2Z4B7,-113.9700732,50.91099366
Crossing Park,Public School,NE,500 Martindale Boulevard NE,Calgary,AB,T3J4W8,-113.9663237,51.11569222
Montessori School of Calgary,Private School,SW,2201 Cliff Street SW,Calgary,AB,T2S2G4,-114.0760776,51.03336102
St. Sebastian,Separate School,SE,65 Chaparral Dr SE,Calgary,AB,T2X0E6,-114.029127,50.88484306
Glamorgan,Public School,SW,50 Grafton Drive SW,Calgary,AB,T3E4W3,-114.1453983,51.01537994
Rundle,Public School,NE,4120 Rundlehorn Drive NE,Calgary,AB,T1Y4W9,-113.9737217,51.07118232
Renfrew Educational Services-Janice McTighe Centre,Private School,NE,2050 - 21 Street NE,Calgary,AB,T2E6S5,-114.0082917,51.06962096
Louis Riel,Public School,SW,9632 Oakfield Drive SW,Calgary,AB,T2V0L1,-114.1322579,50.96673113
Trinity Christian,Public School,SE,"#100, 295 Midpark Way SE",Calgary,AB,T2X2A8,-114.0622404,50.90932823
West Dalhousie,Public School,NW,6502 58 Street NW,Calgary,AB,T3A2C8,-114.1695389,51.1111682
Fairview,Public School,SE,7840 Fairmount Drive SE,Calgary,AB,T2H0Y1,-114.05945,50.98398556
Calgary Girls',Charter,SW,6304 Larkspur Way SW,Calgary,AB,T3E5P7,-114.1147539,50.99907702
Richmond,Public School,SW,2701 22 Street SW,Calgary,AB,T2T5G5,-114.1150386,51.03013271
Mountain Park,Public School,SE,312 Mount Douglas Close SE,Calgary,AB,T2Z4Y1,-113.9818799,50.92379832
St. Luke,Separate School,NW,1232 Northmount Dr NW,Calgary,AB,T2L0E1,-114.1226868,51.09082672
Willow Park,Public School,SE,343 Willow Park Drive SE,Calgary,AB,T2J0K7,-114.0606873,50.95779616
Buffalo Rubbing Stone,Public School,NW,1308 Panatella Boulevard NW,Calgary,AB,T3K0X2,-114.0873685,51.1683524
St. John Paul II,Separate School,NE,119 Castleridge Dr NE,Calgary,AB,T3J1P6,-113.9561994,51.10771023
Ethel M. Johnson,Public School,SW,255 Sackville Drive SW,Calgary,AB,T2W0W7,-114.0890389,50.95547339
Thomas B. Riley,Public School,NW,3915 69 Street NW,Calgary,AB,T3B2J9,-114.1890516,51.08752917
Lester B. Pearson High,Public School,NE,3020 52 Street NE,Calgary,AB,T1Y5P4,-113.9563976,51.07694992
Banbury Crossroads,Private School,SW,B1 #201 2451 Dieppe Avenue SW,Calgary,AB,T3E7K1,-114.1190388,51.01928658
Bowcroft,Public School,NW,3940 73 Street NW,Calgary,AB,T3B2L9,-114.1927889,51.08755906
Bishop Carroll High,Separate School,SW,4624 Richard Rd SW,Calgary,AB,T3E6L1,-114.1207863,51.01269519
Cambrian Heights,Public School,NW,640 Northmount Drive NW,Calgary,AB,T2K3J5,-114.0879744,51.08535175
University of Calgary - Downtown Campus,Post Secondary,,,Calgary,AB,T2P1H9,-114.0821275,51.0463613
Notre-Dame de la Paix,Francophone,SE,809 Willingdon Blvd SE,Calgary,AB,T2J2B7,-114.0433726,50.95091705
Ernest Morrow,Public School,SE,1212 47 Street SE,Calgary,AB,T2A1R3,-113.9648387,51.04338456
Bishop O'Byrne High,Separate School,SE,500 333 Shawville Blvd SE,Calgary,AB,T2Y4H3,-114.0645668,50.89809185
St. Basil,Separate School,NW,919 Tuscany Dr NW,Calgary,AB,T3L2T5,-114.2503348,51.11941379
Dr. E.W. Coffin,Public School,NW,5615 Barrett Drive NW,Calgary,AB,T2L1W4,-114.1347991,51.10375263
Penbrooke Meadows,Public School,SE,5645 Pensacola Crescent SE,Calgary,AB,T2A2G4,-113.9521888,51.04179533
St. Ambrose,Separate School,NW,1500 Arbour Lake Rd NW,Calgary,AB,T3G4X9,-114.2061636,51.13347038
West Dover,Public School,SE,3113 30 Avenue SE,Calgary,AB,T2B0G9,-113.990648,51.02632922
St. Margaret,Separate School,NW,3320 Carol Dr NW,Calgary,AB,T2L0K7,-114.0976374,51.08213532
St. William,Separate School,SE,11020 Fairmount Dr SE,Calgary,AB,T2J0T1,-114.0592614,50.953638
St. Rose of Lima,Separate School,NE,2419 50 St NE,Calgary,AB,T1Y1Z5,-113.9622789,51.07580057
Alberta Chung Wah,Private School,SE,"#270, 328 Centre Street SE",Calgary,AB,T2G4X6,-114.0617383,51.04956496
St. Bernadette,Separate School,SE,55 Lynndale Cres SE,Calgary,AB,T2C0T8,-114.0091978,50.99039088
Monsignor J.S. Smith,Separate School,SE,2919 Douglasdale Blvd SE,Calgary,AB,T2Z2H9,-113.9898639,50.94121168
Kenneth D. Taylor,Public School,NW,30 Evanscove Circle NW,Calgary,AB,T3P0A1,-114.1178014,51.16509597
Greek Community,Private School,SW,1 Tamarac Crescent SW,Calgary,AB,T3C3B7,-114.1374937,51.04817391
G.W. Skene,Public School,SE,6226 Penbrooke Drive SE,Calgary,AB,T2A6M7,-113.9452208,51.04562487
Prince Of Wales,Public School,SE,253 Parkland Way SE,Calgary,AB,T2J3Y9,-114.033308,50.92476418
Notre Dame High,Separate School,NE,11900 Country Village Link NE,Calgary,AB,T3K6E4,-114.065834,51.15765941
Rundle College Senior High,Private School,SW,7375 - 17 Avenue SW,Calgary,AB,T3H3W5,-114.1939221,51.03689411
Abbeydale,Public School,NE,320 Abergale Drive NE,Calgary,AB,T2A6W2,-113.9298486,51.0566252
St. Marguerite,Separate School,SE,1100 New Brighton Drive SE,Calgary,AB,T2Z0W1,-113.9372308,50.92115491
Nose Creek,Public School,NE,135 Covepark Square NE,Calgary,AB,T3K5W9,-114.0606997,51.16714956
SAIT Polytechnic,Post Secondary,,,Calgary,AB,,-114.0892724,51.0645151
Ecole de la Rose Sauvage,Francophone,NW,2512 - 4 Street NW,Calgary,AB,,-114.0703034,51.07484465
Janus Academy (Holy Cross Site),Private School,SE,8516 Athabasca Street SE,Calgary,AB,T2H1S1,-114.0562929,50.9774377
Sacred Heart,Separate School,SW,1312 15 St SW,Calgary,AB,T3C0T6,-114.0966365,51.04092048
St. Cecilia,Separate School,SE,610 Agate Cres SE,Calgary,AB,T2J0Z3,-114.0504111,50.96529608
St. Anthony,Separate School,SW,4811 6 St SW,Calgary,AB,T2S2N5,-114.0792951,51.01010775
"Hamptons, The",Public School,NW,10330 Hamptons Boulevard NW,Calgary,AB,T3A6G2,-114.148507,51.14344573
Master's College,Public School,SW,4414 Crowchild Trail SW,Calgary,AB,T2T5J4,-114.1165476,51.01531296
Captain John Palliser,Public School,NW,1484 Northmount Drive NW,Calgary,AB,T2L0G6,-114.1360161,51.09636485
University of Calgary,Post Secondary,,,Calgary,AB,,-114.1301255,51.07540667
Palliser Beyond Borders at Calgary,Public School,ue,Suite 120 2635 - 37 Avenue,Calgary,AB,T1Y5Z6,-113.9990423,51.08611443
Bow Valley College,Post Secondary,,,Calgary,AB,T2G4S6,-114.0561994,51.04769511
William Reid,Public School,SW,1216 36 Avenue SW,Calgary,AB,T2T2E9,-114.0903428,51.0221745
Haysboro,Public School,SW,1123 87 Avenue SW,Calgary,AB,T2V0W2,-114.0891358,50.97549518
Coventry Hills,Public School,NE,12350 Coventry Hills Way NE,Calgary,AB,T3K5S9,-114.0514137,51.1651804
Columbia College,Private School,NE,802 Manning Road NE,Calgary,AB,T2E7N8,-114.018022,51.05700183
St. Angela,Separate School,NE,231 6 St NE,Calgary,AB,T2E3Y1,-114.0488198,51.05442193
Chinook Park,Public School,SW,1312 75 Avenue SW,Calgary,AB,T2V0S6,-114.0893703,50.98644777
Keeler,Public School,SE,4807 Forego Avenue SE,Calgary,AB,T2A2C4,-113.9648131,51.04925682
Blessed Marie-Rose,Separate School,NW,999 Sherwood Blvd NW,Calgary,AB,T3R1M9,-114.1483237,51.15988954
Ascension of Our Lord,Separate School,NE,509 Harvest Hills Dr NE,Calgary,AB,T3K4G9,-114.0596905,51.14695796
St. Andrew,Separate School,SW,4331 41 Ave SW,Calgary,AB,T3E1G2,-114.1477242,51.01636282
St. Michael,Separate School,SW,4511 8 Ave SW,Calgary,AB,T3C0G9,-114.1515775,51.04478491
Glenmeadows,Public School,SW,4931 Grove Hill Road SW,Calgary,AB,T3E4G4,-114.1589291,51.0348618
St. Rupert,Separate School,NE,111 Rundlehill Dr NE,Calgary,AB,T1Y2W9,-113.9705283,51.07689762
Colonel Sanders (TLC),Public School,NW,226 Northmount Drive NW,Calgary,AB,T2K3G5,-114.0747704,51.09981373
Harold Panabaker,Public School,SW,23 Sackville Drive SW,Calgary,AB,T2W0W3,-114.0866482,50.95763959
Capitol Hill,Public School,NW,2210 18 Street NW,Calgary,AB,T2M3T4,-114.1039175,51.07207663
James Fowler High,Public School,NW,4004 4 Street NW,Calgary,AB,T2K1A1,-114.0705163,51.08653215
Alex Munro,Public School,NE,427  78 Avenue NE,Calgary,AB,T2K0R9,-114.0613952,51.12064736
Westmount Elementary,Charter,NW,728 - 32 Street NW,Calgary,AB,T2N2V9,-114.1314284,51.05814762
St. Thomas More,Separate School,NE,6110 Temple Dr NE,Calgary,AB,T1Y5V4,-113.945556,51.08535322
McKenzie Lake,Public School,SE,16210 McKenzie Lake Way SE,Calgary,AB,T2Z1L7,-113.9849974,50.90621794
Sainte Marguerite Bourgeoys,Francophone,SW,4700 Richard Road SW,Calgary,AB,T3E6L1,-114.1215832,51.01113758
Sir James Lougheed,Public School,SW,3519 36 Avenue SW,Calgary,AB,T3E1C2,-114.1362258,51.02117978
Crescent Heights High,Public School,NW,1019 1 Street NW,Calgary,AB,T2M2S2,-114.0660914,51.0614898
Alternative High,Public School,SW,5003 20 Street SW,Calgary,AB,T2T5A5,-114.10996,51.00965946
Discovering Choices II - Marlborough,Public School,NE,"92, 1116 3800 Memorial Drive NE",Calgary,AB,T2A2K2,-113.9784098,51.05533875
Patrick Airlie,Public School,SE,1520 39 Street SE,Calgary,AB,T2A1H9,-113.9767839,51.03991139
Cecil Swanson,Public School,NE,4820 Rundlewood Drive NE,Calgary,AB,T1Y5V9,-113.9675431,51.07418219
St. Bonaventure,Separate School,SE,1710 Acadia Dr SE,Calgary,AB,T2J3X8,-114.0471812,50.93173706
Mount Royal University - Holy Cross Campus,Post Secondary,,,Calgary,AB,T2S3C3,-114.0670812,51.03243349
Stanley Jones,Public School,NE,950 6 Street NE,Calgary,AB,T2E8M3,-114.0477073,51.05990541
St. Teresa of Calcutta,Separate School,SE,121 Midlake Blvd SE,Calgary,AB,T2X1T7,-114.0521172,50.9144204
King George,Public School,NW,2108 10 Street NW,Calgary,AB,T2M3M4,-114.0840555,51.07089707
Brentwood,Public School,NW,1231 Northmount Drive NW,Calgary,AB,T2L0C9,-114.123858,51.09048945
St. John XXIII,Separate School,NE,1420 Falconridge Dr NE,Calgary,AB,T3J2C3,-113.9389781,51.10140502
Woodlands,Public School,SW,88 Woodgreen Drive SW,Calgary,AB,T2W4W9,-114.1069696,50.93893519
Ted Harrison,Public School,NE,215 Taravista Way NE,Calgary,AB,T3J4L1,-113.9282542,51.11723275
Varsity Acres,Public School,NW,4255 40 Street NW,Calgary,AB,T3A0H7,-114.1482182,51.09101439
West Ridge,Public School,SW,8903 Wentworth Avenue SW,Calgary,AB,T3H5N9,-114.2142424,51.05848922
H.D. Cartwright,Public School,NW,5500 Dalhart Road NW,Calgary,AB,T3A1V6,-114.1613274,51.11264854
Phoenix Education Foundation,Private School,SE,320 19 Street SE,Calgary,AB,T2E6J6,-114.0078257,51.05026416
Manmeet Singh Bhullar,Public School,NE,1027 Martindale Boulevard NE,Calgary,AB,T3J4Z1,-113.9594225,51.12330682
Aurora Learning Calgary,Private School,NE,#137 5305 McCall Way NE,Calgary,AB,T2E7N7,-114.0030345,51.10133931
Louise Dean (Kensington),Public School,NW,120 23 Street NW,Calgary,AB,T2N2P1,-114.1146825,51.05315071
Madeleine d'Houet,Separate School,NW,108 22 St NW,Calgary,AB,T2N2M8,-114.1122553,51.05319362
Corpus Christi,Separate School,NW,5607 Thornton Rd NW,Calgary,AB,T2K3C1,-114.0680318,51.10159694
Calgary Quest,Private School,ry,3405 Spruce Drive SW c/o Spruce Cliff Elementary,Calgary,AB,T3C0A5,-114.1366387,51.0497215
Bishop Grandin High,Separate School,SW,111 Haddon Rd SW,Calgary,AB,T2V2Y2,-114.078741,50.97543777
New Brighton,Public School,SE,30 New Brighton Drive SE,Calgary,AB,T2Z4B2,-113.9537078,50.91947717
St. Hubert,Separate School,NE,320 72 Ave NE,Calgary,AB,T2K5J3,-114.0622133,51.1183759
St. Dominic,Separate School,NW,4820 Dalhart Rd NW,Calgary,AB,T3A1C2,-114.1542441,51.10955875
St. Boniface,Separate School,SE,927 Lake Sylvan Dr SE,Calgary,AB,T2J2P8,-114.0423413,50.94306371
Highwood,Public School,NW,11 Holmwood Avenue NW,Calgary,AB,T2K2G5,-114.0765328,51.09224357
Jack James High,Public School,SE,5105 8 Avenue SE,Calgary,AB,T2A4M1,-113.9603709,51.04456881
Dalhousie,Public School,NW,4440 Dallyn Street NW,Calgary,AB,T3A1K3,-114.1513785,51.10652693
Dr. Oakley,Public School,SW,3904 20 Street SW,Calgary,AB,T2T4Z9,-114.1084354,51.01927221
Cappy Smart,Public School,NE,5808 Madigan Drive NE,Calgary,AB,T2A4P5,-113.9450677,51.06369308
Rosemont,Public School,NW,19 Rosevale Drive NW,Calgary,AB,T2K1N6,-114.0923733,51.07787121
Griffith Woods,Public School,SW,7652 26 Avenue SW,Calgary,AB,T3H3X2,-114.194747,51.03097941
St. Wilfrid,Separate School,NE,4225 44 Ave NE,Calgary,AB,T1Y4Y1,-113.9689943,51.09192654
St. Cyril,Separate School,SW,2990 Cedarbrae Dr SW,Calgary,AB,T2W2N9,-114.1285512,50.95548929
St. Francis High,Separate School,NW,877 Northmount Dr NW,Calgary,AB,,-114.1024075,51.08450658
Yufeng Chinese,Private School,NW,169 Citadel Ridge Close NW,Calgary,AB,T3G4V5,-114.1834692,51.14609435
St. Matthew,Separate School,SE,416 83 Ave SE,Calgary,AB,T2H1N3,-114.0585101,50.97868237
West View,Public School,NW,12626 85 Street NW,Calgary,AB,T3R1J3,-114.2080705,51.16557939
Simons Valley,Public School,NW,375 Sandarac Drive NW,Calgary,AB,T3K4B2,-114.107326,51.13967813
Monsignor E.L. Doyle,Separate School,NW,8887 Scurfield Dr NW,Calgary,AB,T3L1H6,-114.2164244,51.1220284
Tom Baines,Public School,NW,250 Edgepark Boulevard NW,Calgary,AB,T3A3S2,-114.1569935,51.1335144
A. E. Cross,Public School,SW,3445 37 Street SW,Calgary,AB,T3E3C2,-114.1420958,51.02324431
Centennial High,Public School,SE,55 Sun Valley Boulevard SE,Calgary,AB,T2X3W7,-114.0533548,50.90610968
Our Lady of Lourdes,Separate School,SW,1916 2 St SW,Calgary,AB,T2S1S3,-114.0681603,51.03567312
Roland Michener,Public School,NE,5958 4 Avenue NE,Calgary,AB,T2A4B1,-113.9473997,51.05701939
Southwest Elementary Campus,Charter,SW,898 Sylvester Cres. SW,Calgary,AB,T2W0R7,-114.0825466,50.95898072
West Island College,Private School,SE,7410 Blackfoot Trail SE,Calgary,AB,T2H1M5,-114.0521604,50.98710438
Father Doucet,Separate School,SW,65 Shannon Dr SW,Calgary,AB,T2Y2T5,-114.0851689,50.90934423
St. Isabella,Separate School,SE,855 Copperfield Blvd SE,Calgary,AB,T2Z4W8,-113.935989,50.91058319
School of East Indian Languages and Performing Arts,Private School,SW,376 Silverado Boulevard SW,Calgary,AB,T2X0N9,-114.0875454,50.88374152
Le Roi Daniels,Public School,SE,47 Fyffe Road SE,Calgary,AB,T2H1B9,-114.0579556,50.98385836
Delta West Academy,Private School,NE,414 - 11A Street NE,Calgary,AB,T2E4P3,-114.0346249,51.05510768
McKenzie Towne,Public School,SE,679 Prestwick Circle SE,Calgary,AB,T2Z0V3,-113.9667175,50.92704874
MAC Islamic School - Calgary Chapter,Private School,NW,6415 Ranchview Drive NW,Calgary,AB,T3G1B5,-114.1799394,51.11482356
Mount Royal University - Lincoln Park Campus,Post Secondary,,,Calgary,AB,T3E6K6,-114.1327203,51.01280496
Woodbine,Public School,SW,27 Woodfield Way SW,Calgary,AB,T2W5E1,-114.1289426,50.93653289
Father Scollen,Separate School,NE,6839 Temple Dr NE,Calgary,AB,T1Y5N4,-113.9419616,51.09302027
Annie Gale,Public School,NE,577 Whiteridge Way NE,Calgary,AB,T1Y4S8,-113.9689428,51.08907262
Monsignor Neville Anderson,Separate School,NW,327 Sandarac Dr NW,Calgary,AB,T3K4B2,-114.1041192,51.13915616
Robert Warren,Public School,SW,12424 Elbow Drive SW,Calgary,AB,T2W1H2,-114.084817,50.94250672
Prince of Peace,Separate School,SE,43 Auburn Meadows Blvd SE,Calgary,AB,T3M2C9,-113.9498421,50.89326387
Henry Wise Wood High,Public School,SW,910 75 Avenue SW,Calgary,AB,T2V0S6,-114.0846844,50.98634063
Bishop McNally High,Separate School,NE,5700 Falconridge Blvd NE,Calgary,AB,T3J3N4,-113.9537059,51.10303042
Little Angels,Private School,NW,599 Northmount Dr NW,Calgary,AB,T2K3J6,-114.0880221,51.08717329
Forest Lawn High,Public School,SE,1304 44 Street SE,Calgary,AB,T2A1M8,-113.9689496,51.04240307
Copperfield,Public School,SE,54 Copperstone Road SE,Calgary,AB,T2Z0G7,-113.9288059,50.91483204
Scenic Acres,Public School,NW,50 Scurfield Way NW,Calgary,AB,T3L1T2,-114.2156566,51.12008909
Glendale,Public School,SW,2415 Kelwood Drive SW,Calgary,AB,T3E3Z8,-114.14558,51.03246723
St. Jude,Separate School,SW,730 Woodbine Blvd SW,Calgary,AB,T2W4W4,-114.1334374,50.94295224
Vista Virtual School - Calgary Writing Centre,Public School,SE,341 - 58 Avenue SE,Calgary,AB,,-114.0576597,51.00048542
University,Public School,NW,3035 Utah Drive NW,Calgary,AB,T2N3Z9,-114.1332756,51.0698082
Discovering Choices - Downtown - CACY,Public School,SE,"206, 315 10 Avenue SE",Calgary,AB,T2G0W2,-114.0566933,51.04287051
The School of Alberta Ballet,Private School,SW,"West Annex, 2nd Floor 906-12 Avenue SW",Calgary,AB,T2R1K7,-114.082058,51.042251
Holy Angels,Separate School,SE,275 Riverglen Dr SE,Calgary,AB,T2C3T5,-114.0100177,50.97409534
Terrace Road,Public School,NW,2103 46 Street NW,Calgary,AB,T3B1B3,-114.1579317,51.07450188
Sundance,Public School,SE,200 Sunmills Drive SE,Calgary,AB,T2X2N9,-114.0468131,50.90066057
Annie Foote,Public School,NE,6320 Temple Drive NE,Calgary,AB,T1Y5V5,-113.9403303,51.08598862
Simon Fraser,Public School,NW,5215 33 Street NW,Calgary,AB,T2L1V3,-114.1365505,51.10031941
St. Clare,Separate School,NE,12455 Coventry Hills Way NE,Calgary,AB,T3K5Z4,-114.0453956,51.16474253
Westgate,Public School,SW,150 Westminster Drive SW,Calgary,AB,T3C2T3,-114.1591998,51.04448815
John G. Diefenbaker High,Public School,NW,6620 4 Street NW,Calgary,AB,T2K1C2,-114.0701312,51.11279744
Janet Johnstone,Public School,SW,224 Shawnessy Drive SW,Calgary,AB,T2Y1M1,-114.080086,50.90936931
St. Monica,Separate School,SW,235 18 Ave SW,Calgary,AB,T2S0C2,-114.0678144,51.03676979
Hillhurst,Public School,NW,1418 7 Avenue NW,Calgary,AB,T2N0Z2,-114.0931372,51.05929477
Mount View,Public School,NE,2004 4 Street NE,Calgary,AB,T2E3T8,-114.0520619,51.06962544
Niitsitapi Learning Centre,Public School,SE,3743 Dover Ridge Drive SE,Calgary,AB,T2B2E1,-113.9793371,51.02058871
Calgary Academy Collegiate,Private School,SW,1677 - 93rd Street SW,Calgary,AB,T3H0R3,-114.2242479,51.03943008
Dr. Gordon Higgins,Public School,NE,155 Rundlehill Drive NE,Calgary,AB,T1Y2W9,-113.970664,51.07526967
F.E. Osborne,Public School,NW,5315 Varsity Drive NW,Calgary,AB,T3A1A7,-114.162965,51.0928118
Father Whelihan,Separate School,SE,70 Sunmills Dr SE,Calgary,AB,T2X2R5,-114.0470194,50.90452435
Westmount Mid/High,Charter,NW,2215 Uxbridge Dr. NW,Calgary,AB,T2N4Y3,-114.1325128,51.07104759
St. Jerome,Separate School,NW,11616 Panorama Hills Blvd NW,Calgary,AB,T3K5S3,-114.0792827,51.15771116
Alexander Ferguson,Public School,SW,1704 26 Street SW,Calgary,AB,T3C1K5,-114.1229836,51.03936377
Canadian Montessori School North,Private School,SW,1112 - 70 Avenue SW,Calgary,AB,T2V0P6,-114.0882622,50.99074473
Dr. J.K. Mulloy,Public School,NW,7440 10 Street NW,Calgary,AB,T2K1H6,-114.079969,51.11922507
Radisson Park,Public School,SE,2805 Radcliffe Drive SE,Calgary,AB,T2A0C8,-113.992233,51.04616136
Lord Beaverbrook High,Public School,SE,9019 Fairmount Drive SE,Calgary,AB,T2H0Z4,-114.0616396,50.97309982
Elbow Park,Public School,SW,721 - 38 Avenue SW,Calgary,AB,T2T2H8,-114.082197,51.01957747
St. Jean Brebeuf,Separate School,NW,5030 Northland Dr NW,Calgary,AB,T2L2J6,-114.1402289,51.09789338
Our Lady of the Evergreens,Separate School,SW,322 Everridge Drive SW,Calgary,AB,T2Y0L5,-114.1221942,50.91437381
Rosedale,Public School,NW,905 13 Avenue NW,Calgary,AB,T2M0G3,-114.0815297,51.06359728
Samuel W. Shaw,Public School,SW,115 Shannon Drive SW,Calgary,AB,T2Y0K6,-114.0873756,50.90813212
Tuscany,Public School,NW,990 Tuscany Drive NW,Calgary,AB,T3L2T4,-114.2454306,51.11778706
Trust Treatment Centre,Public School,NW,2282 9 Street NW,Calgary,AB,T2M4P6,-114.0828403,51.07207022
Mount Royal,Public School,SW,2234 14 Street SW,Calgary,AB,T2T3T3,-114.0939102,51.03472234
Fish Creek,Public School,SE,1039 Suncastle Drive SE,Calgary,AB,T2X2Z1,-114.0328114,50.90150514
Sherwood,Public School,SE,2011 66 Avenue SE,Calgary,AB,T2C1J4,-114.0114784,50.99369668
John Ware,Public School,SW,10020 19 Street SW,Calgary,AB,T2V1R2,-114.1053048,50.96365477
Holy Trinity,Separate School,SE,1717 41 St SE,Calgary,AB,T2A1L2,-113.9749456,51.03897001
Douglasdale,Public School,SE,400 Douglas Park Boulevard SE,Calgary,AB,T2Z4A3,-113.9826488,50.93526299
Vista Heights,Public School,NE,2411 Vermillion Street NE,Calgary,AB,T2E6J3,-114.0170736,51.07388724
Janus Academy,Private School,SE,2223 Spiller Road SE,Calgary,AB,T2G4G9,-114.0457894,51.03318859
Renfrew (Children's Village),Public School,NE,1210 Russet Road NE,Calgary,AB,T2E5L5,-114.0419644,51.06386879
Rundle College Junior High,Private School,SW,7375 - 17 Avenue SW,Calgary,AB,T3H3W5,-114.1939221,51.03689411
St. Mark,Separate School,NE,4589 Marbank Dr NE,Calgary,AB,T2A3V8,-113.969349,51.06304575
The Third Academy,Private School,SE,"3,510-77th Ave SE",Calgary,AB,T2H1C3,-114.0514595,50.98512208
St. Philip,Separate School,SE,13825 Parkside Dr SE,Calgary,AB,T2J5A8,-114.0382746,50.92788262
Sunalta,Public School,SW,536 Sonora Avenue SW,Calgary,AB,T3C2J9,-114.1108977,51.0413434
Calgary Christian High,Public School,SW,5029 - 26 Avenue SW,Calgary,AB,T3E0R5,-114.1589411,51.02976336
Guy Weadick,Public School,NE,5612 Templehill Road NE,Calgary,AB,T1Y4W7,-113.9529749,51.08698834
St. Gerard,Separate School,SW,1204 96 Ave SW,Calgary,AB,T2V0Y1,-114.0884791,50.96887003
St. Anne Academic Centre,Separate School,SE,1010 21 Ave SE,Calgary,AB,T2G1N2,-114.0389181,51.03513931
St. Damien,Separate School,SE,3619 28 St SE,Calgary,AB,T2B2J1,-113.9921971,51.0219097
Pineridge,Public School,NE,1927 61 Street NE,Calgary,AB,T1Y4W6,-113.9452293,51.0703248
Lord Shaughnessy High,Public School,SW,2336 53 Avenue SW,Calgary,AB,T3E1L2,-114.1139277,51.00651691
Cedarbrae,Public School,SW,10631 Oakfield Drive SW,Calgary,AB,T2W2T3,-114.1331845,50.95839876
Eugene Coste,Public School,SW,10 Hillgrove Crescent SW,Calgary,AB,T2V3K7,-114.0869778,50.96788958
Bishop Pinkham,Public School,SW,3304 63 Avenue SW,Calgary,AB,T3E5K1,-114.1306992,50.99726298
Acadia,Public School,SE,9603 5 Street SE,Calgary,AB,T2J1K4,-114.0539269,50.96761062
Rundle College Elementary,Private School,SW,7615 - 17 Ave SW,Calgary,AB,T3H3W5,-114.1973197,51.03671309
Eastside Christian Academy,Private School,SE,1320 Abbeydale Drive SE,Calgary,AB,T2A7L8,-113.93022,51.05195233
Dr. Gordon Townsend,Public School,NW,2888 Shaganappi Trail NW,Calgary,AB,T3B6A8,-114.1483456,51.07449452
St. Rita,Separate School,NW,7811 Ranchview Dr NW,Calgary,AB,T3G2B3,-114.1817531,51.11986617
James Fowler High,Public School,NW,4004 4 Street NW,Calgary,AB,T2K1A1,-114.0705163,51.08653215
Clear Water Academy,Private School,SW,2521 Dieppe Avenue SW,Calgary,AB,T3E7J9,-114.120974,51.01937604
"Calgary Islamic School, Akram Jomaa Campus",Public School,NE,2612 - 37 Avenue NE,Calgary,AB,T1Y5L2,-114.0004774,51.08758987
Calgary Academy,Private School,SW,1677 93 rd Street SW,Calgary,AB,T3H0R3,-114.2242479,51.03943008
Olympic Heights,Public School,SW,875 Strathcona Drive SW,Calgary,AB,T3H2Z7,-114.1807765,51.04596759
Hidden Valley,Public School,NW,10959 Hidden Valley Drive NW,Calgary,AB,T3A6J2,-114.11959,51.15025376
Our Lady of the Assumption,Separate School,NW,7311 34 Ave NW,Calgary,AB,T3B1N5,-114.1913503,51.08329961
Altadore,Public School,SW,4506 16 Street SW,Calgary,AB,T2T4H9,-114.0997332,51.01400266
Hugh A. Bennett,Public School,NE,40 Saddlelake Way  NE,Calgary,AB,T3J0V1,-113.9285483,51.13168396
Holy Family,Separate School,SE,904 32 St SE,Calgary,AB,T2A0Z1,-113.9878638,51.04553616
Branton,Public School,NW,2103 20 Street NW,Calgary,AB,T2M3W1,-114.1090305,51.07124691
Marion Carson,Public School,NW,5225 Varsity Drive NW,Calgary,AB,T3A1A7,-114.1614063,51.09291658
Buchanan,Public School,th,3717 Centre Street North,Calgary,AB,T2E2Y2,-114.0631478,51.08562966
FFCA High School Campus,Charter,NW,2116 McKay Road NW,Calgary,AB,T3B1C7,-114.1519278,51.06958106
Belfast,Public School,NE,1229 17A Street NE,Calgary,AB,T2E4V4,-114.0183083,51.06337499
St. Albert the Great,Separate School,SE,225 Prestwick Ave SE,Calgary,AB,T2Z3X3,-113.9600758,50.92150965
Blessed Cardinal Newman,Separate School,SE,16201 McKenzie Lake Blvd SE,Calgary,AB,T2Z2G7,-113.9888584,50.90733934
Dr. Roberta Bondar,Public School,SW,1580 Strathcona Drive SW,Calgary,AB,T3H5B1,-114.2055305,51.05033672
Riverbend,Public School,SE,65 Rivervalley Drive SE,Calgary,AB,T2C3Z7,-114.0185021,50.97215624
École du Nouveau-Monde,Francophone,NW,220 Scenic Acres Drive NW,Calgary,AB,T3L0E7,-114.215124,51.11159602
St. Martha,Separate School,NE,6020 4 Ave NE,Calgary,AB,T2A4B1,-113.9456454,51.0565473
Edgemont,Public School,NW,55 Edgevalley Circle NW,Calgary,AB,T3A4X1,-114.1435785,51.12888867
Valley View,Public School,SE,4105 26 Avenue SE,Calgary,AB,T2B0C6,-113.9752778,51.03005456
Ecole Terre des Jeunes,Francophone,NW,3720 - 42 Street NW,Calgary,AB,T3A0C6,-114.1499554,51.08531771
New Heights School and Learning Services,Private School,SW,4041 Breskins Drive SW,Calgary,AB,T3E7M1,-114.1221702,51.01847444
South Middle School Campus,Charter,SE,8710 Ancourt Rd. SE,Calgary,AB,T2H1V2,-114.053305,50.97529024
Douglas Harkness,Public School,NE,6203 24 Avenue NE,Calgary,AB,T1Y2C5,-113.9460446,51.07384348
William D. Pratt,Public School,NW,9850 Royal Oak Way NW,Calgary,AB,T3G0A4,-114.2240926,51.14936065
Maple Ridge,Public School,SE,10203 Maplemont Road SE,Calgary,AB,T2J1W3,-114.0419588,50.96189052
Jennie Elliott,Public School,SW,3031 Lindsay Drive SW,Calgary,AB,T3E6A9,-114.1272286,50.99612956
St. Brigid,Separate School,NW,730 Citadel Way NW,Calgary,AB,T3G5S6,-114.1877229,51.14634032
Battalion Park,Public School,SW,369 Sienna Park Drive SW,Calgary,AB,T3H4S2,-114.181901,51.02356691
Midsun,Public School,SE,660 Sunmills Drive SE,Calgary,AB,T2X3R5,-114.0309154,50.90184947
Dr. Gladys McKelvie Egbert,Public School,NE,6033 Madigan Drive NE,Calgary,AB,T2A5G9,-113.9415291,51.05889221
Calgary Jewish Academy,Private School,SW,6700 Kootenay Street SW,Calgary,AB,T2V1P7,-114.0926065,50.99349472
Monterey Park,Public School,NE,7400 California Boulevard NE,Calgary,AB,T1Y6R2,-113.9304829,51.07742466
West Springs,Public School,SW,8999 Wentworth Avenue SW,Calgary,AB,T3H0P7,-114.2167498,51.05843778
Renfrew Educational Services - Child Development Centre,Private School,NE,2050 - 21 Street NE,Calgary,AB,T3B2X9,-114.1439291,51.07476523
Rundle College Academy,Private School,SW,4330 - 16 Street SW,Calgary,AB,T2T4H9,-114.0997725,51.01529662
David Thompson,Public School,SE,9320 Arbour Crescent SE,Calgary,AB,T2J1K4,-114.0546514,50.96940359
Christine Meikle,Public School,NW,3525 50 Street NW,Calgary,AB,T3A2Y5,-114.1610657,51.08454469
Beddington Heights,Public School,NW,95 Bermuda Road NW,Calgary,AB,T3K2J6,-114.0793929,51.13174563
Holy Cross,Separate School,SE,3719 26 Ave SE,Calgary,AB,T2B0C6,-113.9795625,51.03005541
Erin Woods,Public School,SE,25 Erin Park Drive SE,Calgary,AB,T2B2Z9,-113.9657774,51.02269972
Marlborough,Public School,NE,4711 Maryvale Drive NE,Calgary,AB,T2A3A1,-113.9654996,51.05608357
Catherine Nichols Gunn,Public School,NE,6625 4 Street NE,Calgary,AB,T2K5C7,-114.057895,51.11164372
Arbour Lake,Public School,NW,27 Arbour Crest Drive NW,Calgary,AB,T3G4H3,-114.2091772,51.13465099
Dr. E.P. Scarlett High,Public School,SW,220 Canterbury Drive SW,Calgary,AB,T2W1H4,-114.0879719,50.94878736
Wilma Hansen,Public School,SE,963 Queensland Drive SE,Calgary,AB,,-114.0188704,50.9322873
St. Helena,Separate School,NW,320 64 Ave NW,Calgary,AB,T2K0L8,-114.0677619,51.1115067
National Sports,Public School,SW,"110, 151 Olympic Park Road SW",Calgary,AB,T3B6B7,-114.2210265,51.08479481
Rideau Park,Public School,SW,829 Rideau Road SW,Calgary,AB,T2S0S2,-114.0755637,51.02527662
Killarney,Public School,SW,3008 33 Street SW,Calgary,AB,T3E2T9,-114.1347293,51.02819342
Sam Livingston,Public School,SE,12011 Bonaventure Drive SE,Calgary,AB,T2J3G7,-114.0612703,50.94544818
Maria Montessori,Private School,NW,Chief Crowfoot School 2634 12 Ave NW,Calgary,AB,T2N1K6,-114.1235826,51.0627098
Monsignor A.J. Hetherington,Separate School,NE,4 Coral Springs Blvd NE,Calgary,AB,T3J3J3,-113.9340476,51.0995523
Wildwood,Public School,SW,120 45 Street SW,Calgary,AB,T3C2B3,-114.1521166,51.05158955
Falconridge,Public School,NE,1331 Falconridge Drive NE,Calgary,AB,T3J1T4,-113.9454326,51.09936414
Midnapore,Public School,SE,55 Midpark Rise SE,Calgary,AB,T2X1L7,-114.0551747,50.91504021
Colonel J. Fred Scott,Public School,NE,171 Whitehorn Road NE,Calgary,AB,T1Y3C4,-113.9681644,51.0877669
Banff Trail,Public School,NW,3232 Cochrane Road NW,Calgary,AB,T2M4J3,-114.1167588,51.08163948
Robert Thirsk High,Public School,NW,8777 Nose Hill Drive NW,Calgary,AB,T3G5T3,-114.1947783,51.13084134
Heritage Christian Academy,Public School,NE,2003 McKnight Boulevard NE,Calgary,AB,T2E6L2,-114.0101364,51.09213522
Connaught,Public School,SW,1121 12 Avenue SW,Calgary,AB,T2R0J8,-114.0877162,51.04153268
Nelson Mandela High,Public School,NE,45 Saddletowne Circle NE,Calgary,AB,T3J4W3,-113.9488457,51.12198057
Elboya,Public School,SW,4804 6 Street SW,Calgary,AB,T2S2N3,-114.0782137,51.01088338
W.O. Mitchell,Public School,NW,511 Silvergrove Drive NW,Calgary,AB,T3B4R9,-114.1942875,51.11369077
St. Elizabeth Seton,Separate School,NW,10845 Hidden Valley Dr NW,Calgary,AB,T3A6K3,-114.1104364,51.15110183
St. Maria Goretti,Separate School,NW,375 Hawkstone Dr NW,Calgary,AB,T3G3T7,-114.1777507,51.13452422
Terry Fox,Public School,NE,139 Falshire Drive NE,Calgary,AB,T3J1P7,-113.945104,51.10465691
Belvedere Parkway,Public School,NW,4631 85 Street NW,Calgary,AB,T3B2R8,-114.2115592,51.09271682
St. John Bosco Private,Private School,SE,712 Fortalice Cres SE,Calgary,AB,T2A2E1,-113.9594399,51.04660001
Citadel Park,Public School,NW,808 Citadel Drive NW,Calgary,AB,T3G4B8,-114.1742345,51.14545106
Ecole de La Source,Francophone,SE,360 - 94 Avenue SE,Calgary,AB,T2J0E8,-114.0618314,50.96917876
St. Benedict,Separate School,SW,10340 19 St SW,Calgary,AB,T2V1R2,-114.105447,50.9619937
Calgary French & International,Private School,SW,700 - 77 Street SW,Calgary,AB,T3H5R1,-114.1978322,51.06789493
Akiva Academy,Private School,SW,140 Haddon Road SW,Calgary,AB,T2V2Y3,-114.0778236,50.97327738
Chinook Winds Adventist Academy,Private School,SW,10101 - 2nd Avenue SW,Calgary,AB,T3B5T2,-114.2332662,51.07923421
Woodman,Public School,SW,8706 Elbow Drive SW,Calgary,AB,T2V1L2,-114.083213,50.97565831
Collingwood,Public School,NW,3826 Collingwood Drive NW,Calgary,AB,T2L0R6,-114.1032575,51.08578192
St. Patrick,Separate School,NE,6006 Rundlehorn Dr NE,Calgary,AB,T1Y2X1,-113.9467028,51.07198995
St. Mary's High,Separate School,SW,111 18 Ave SW,Calgary,AB,T2S0B8,-114.0640176,51.03661432
Colonel Walker,Public School,SE,1921 9 Avenue SE,Calgary,AB,T2G0V3,-114.0190347,51.034362
Emily Follensbee,Public School,SW,5139 14 Street SW,Calgary,AB,T2T3W5,-114.0955749,51.00763587
Mother Mary Greene,Separate School,NW,115 Edenwold Dr NW,Calgary,AB,T3A3S8,-114.1392386,51.1243068
Canadian Montessori School West,Private School,SW,1112 - 70 Avenue SW,Calgary,AB,T2V0P6,-114.0882622,50.99074473
Young Adult Program,Public School,NW,1403 29 Street NW,Calgary,AB,T2N2T9,-114.1344107,51.06466876
Banting and Best,Public School,SE,1819 66 Avenue SE,Calgary,AB,T2C2K5,-114.0138538,50.99372604
Discovering Choices - Bowness - Start Outreach,Public School,NW,4110 79 Street NW,Calgary,AB,T3B5C2,-114.2019032,51.08942953
Ramsay,Public School,SE,2223 Spiller Road SE,Calgary,AB,T2G4G9,-114.0457894,51.03318859
Mountain View Academy,Private School,NE,3915 34 Street NE,Calgary,AB,T1Y6Z8,-113.9861039,51.0884378
Rosscarrock,Public School,SW,1406 40 Street SW,Calgary,AB,T3C1W7,-114.1447822,51.04121638
École La Mosaïque,Francophone,NE,199 Martindale Blvd NE,Calgary,AB,T3J3G4,-113.9575118,51.1137667
Queen Elizabeth High,Public School,NW,512 18 Street NW,Calgary,AB,T2N2G5,-114.1019163,51.05620243
Valley Creek,Public School,NW,10951 Hidden Valley Drive NW,Calgary,AB,T3A6J2,-114.1166729,51.15023383
Lord Beaverbrook High,Public School,SE,9019 Fairmount Drive SE,Calgary,AB,T2H0Z4,-114.0616396,50.97309982
Maria Montessori School - cSPACE King Edward Location,Private School,SW,cSPACE Projects 1721-29 Avenue SW,Calgary,AB,T2T6T7,-114.1008834,51.02726986
Andrew Sibbald,Public School,SE,1711 Lake Bonavista Drive SE,Calgary,AB,T2J2X9,-114.0408775,50.9351786
Canyon Meadows,Public School,SW,395 Canterbury Drive SW,Calgary,AB,T2W1J1,-114.0780912,50.94741036
AADAC,Public School,NW,1005  17 Street NW,Calgary,AB,T2N2E5,-114.101692,51.06110534
Balmoral,Public School,NW,220 16 Avenue NW,Calgary,AB,T2M0H4,-114.0664802,51.06788182
St. Stephen,Separate School,SW,10910 Elbow Dr SW,Calgary,AB,T2W1G6,-114.0838525,50.95569541
Italian School of Calgary,Private School,NE,416-1 Avenue NE,Calgary,AB,T2E0B4,-114.0531472,51.0537463
Sir John Franklin,Public School,NE,2215 8 Avenue NE,Calgary,AB,T2E0T7,-114.0079231,51.05967722
Foothills Academy,Private School,NW,745 - 37 Street NW,Calgary,AB,T2N4T1,-114.1423066,51.06407216
Canadian Montessori,Private School,SW,1112 70 Avenue SW,Calgary,AB,T2V0P6,-114.0882622,50.99074473
Our Lady of Grace,Separate School,NW,736 Evanston Drive NW,Calgary,AB,T3P0N7,-114.1204866,51.17933944
"Calgary Islamic School, Omar Bin Al-Khattab Campus",Public School,SE,Omar Bin Al-Khattab Campus 225 28 Street SE,Calgary,AB,T2A5K4,-113.9938098,51.05074504
Bridlewood,Public School,SW,207 Bridleridge Way SW,Calgary,AB,T2Y0L4,-114.110662,50.90238361
Glenbrook,Public School,SW,4725 33 Avenue SW,Calgary,AB,T3E3V1,-114.1549975,51.0235114
Ernest Manning High,Public School,SW,20 Springborough Boulevard SW,Calgary,AB,T3H0N7,-114.1892353,51.03595702
Christ the King,Separate School,SE,333 Cranston Way SE,Calgary,AB,T3M1K6,-113.9759703,50.88783692
Vincent Massey,Public School,SW,939 45 Street SW,Calgary,AB,T3C2B9,-114.1534231,51.04403726
Braeside,Public School,SW,1747 107 Avenue SW,Calgary,AB,T2W0C3,-114.1016943,50.95667356
Peter Lougheed,Public School,NE,148 Saddletree Close NE,Calgary,AB,T3J5J1,-113.9556832,51.13066963
Cranston,Public School,SE,205 Cranston Drive SE,Calgary,AB,T3M1E8,-113.9872418,50.88678714
Evergreen,Public School,SW,367 Everstone Drive SW,Calgary,AB,T2Y0L3,-114.1065198,50.91692394
Calgary Arts Academy,Charter,SE,640 14th Avenue SE,Calgary,AB,T2G1E8,-114.0492422,51.03940198
Lord Shaughnessy High,Public School,SW,2336 53 Avenue SW,Calgary,AB,T3E1L2,-114.1139277,51.00651691
Dr. Martha Cohen,Public School,SE,116 Brightondale Park SE,Calgary,AB,T2Z0V1,-113.9447324,50.91709892
Master's Academy,Public School,SW,4414 Crowchild Trail SW,Calgary,AB,T2T5J4,-114.1165476,51.01531296
St. Catherine,Separate School,SW,11 Canata Close SW,Calgary,AB,T2W1P6,-114.0864826,50.94388174
Calgary German Language School Society,Private School,NW,3940 73 Street NW,Calgary,AB,T3B2L9,-114.1927889,51.08755906
Taradale,Public School,NE,170 Taravista Drive NE,Calgary,AB,,-113.9377551,51.12125306
Northwest Elementary Campus,Charter,NW,719-44 Ave NW,Calgary,AB,T2K0J5,-114.0780594,51.09317275
Grant MacEwan,Public School,NE,180 Falshire Drive NE,Calgary,AB,T3J3A5,-113.9429503,51.10642762
Bearspaw Christian School & College,Private School,NW,15001 - 69 Street NW,Calgary,AB,T3R1C5,-114.189516,51.18697362
Chaparral,Public School,SE,480 Chaparral Drive SE,Calgary,AB,T2X3S2,-114.0449682,50.88296401
Webber Academy,Private School,SW,1515 - 93 Street SW,Calgary,AB,T3H4A8,-114.2250221,51.04412145
Light of Christ,Separate School,NE,6270 Saddlehorn Dr NE,Calgary,AB,T3J0L8,-113.9412735,51.12953723
Art Smith Aero Centre,Post Secondary,,,Calgary,AB,T2E9B5,-114.0054563,51.1011594
Lake Bonavista,Public School,SE,1015 120 Avenue SE,Calgary,AB,T2J2L1,-114.0409238,50.94454098
Saddle Ridge,Public School,NE,368 Saddlecrest Boulevard NE,Calgary,AB,T3J5L6,-113.9368796,51.13688258
Access International College (Calgary) Inc.,Private School,00,B1 - 2451 Dieppe Avenue SW Box 100,Calgary,AB,T3E7K1,-114.1190388,51.01928658
Colonel Irvine,Public School,NW,412 Northmount Drive NW,Calgary,AB,T2K3H6,-114.0799321,51.09243676
Asasa Academy,Private School,NW,599 Northmount Drive NW,Calgary,AB,T2K3J6,-114.0880221,51.08717329
Sir Winston Churchill High,Public School,NW,5220 Northland Drive NW,Calgary,AB,T2L2J6,-114.13999,51.1001127
Horizon Leadership Academy,Public School,SW,Building B4 Battleford Ave. SW,Calgary,AB,T3E7K9,-114.1190467,51.01764438
Renert,Private School,NW,14 Royal Vista Link NW,Calgary,AB,T3R0K4,-114.2028365,51.15183702
Chris Akkerman,Public School,NE,5004 Marbank Drive NE,Calgary,AB,T2A3J6,-113.963011,51.06375727
Guardian Angel,Separate School,SW,20 Aspen Hills Drive SW,Calgary,AB,T3H0G5,-114.2164654,51.04062873
Wood's Homes,Public School,NW,9400 48 Avenue NW,Calgary,AB,T3B2B2,-114.2242283,51.09609805
St. Joseph,Separate School,NW,2512 5 St NW,Calgary,AB,T2M3C7,-114.0733169,51.07478657
Holy Child,Separate School,SW,31 Silverado Terrace SW,Calgary,AB,T2X0K4,-114.0831381,50.88618302
Auburn Bay,Public School,SE,7 Auburn Bay Avenue SE,Calgary,AB,T3M0K6,-113.962328,50.896755
Holy Name,Separate School,SW,3011 35 St SW,Calgary,AB,T3E2Y7,-114.1390036,51.02827189
Sunnyside,Public School,NW,211 7 Street NW,Calgary,AB,T2N1S2,-114.0795441,51.05656238
Ranchlands,Public School,NW,610 Ranchlands Boulevard NW,Calgary,AB,T3G2C5,-114.1792097,51.11870483
Clarence Sansom,Public School,NE,5840 24 Avenue NE,Calgary,AB,T1Y6G4,-113.9491955,51.07461348
Eric Harvie,Public School,NW,357 Tuscany Drive NW,Calgary,AB,T3L3C9,-114.2511111,51.12804188
St. Augustine,Separate School,SW,7112 7 St SW,Calgary,AB,T2V1E9,-114.0807771,50.99111369
Southeast Elementary Campus,Charter,SE,9711 Academy Drive SE,Calgary,AB,T2J1A9,-114.0454063,50.96724193
Tyndale Christian,Private School,NE,28 Hart Estates Blvd. NE,Calgary,AB,T1X0L3,-113.8677457,51.05863393
"Almadina Language Charter Academy, Mountain View Campus",Charter,SE,2031 Sable Drive SE,Calgary,AB,T2B1R9,-113.986831,51.03220046
Royal Oak,Public School,NW,9100 Royal Birch Boulevard NW,Calgary,AB,T3G5R8,-114.2220693,51.1455728
Twelve Mile Coulee,Public School,NW,65 Tuscany Hills Road NW,Calgary,AB,T3L0C7,-114.2434801,51.12283617
St. Thomas Aquinas,Separate School,SW,4540 26 Ave SW,Calgary,AB,T3E0R1,-114.1517849,51.03098762
Renfrew Thomas W. Buchanan Centre,Private School,NE,2050 - 21 Street NE,Calgary,AB,T2X3V4,-114.0557423,50.90220617
Divine Mercy,Separate School,SE,228 Mahogany Blvd. SE,Calgary,AB,T3M1M5,-113.9239578,50.90155662
Panorama Hills,Public School,NW,1057 Panorama Hills Drive NW,Calgary,AB,T3K0S4,-114.0859214,51.15581401
Central Memorial High,Public School,SW,5111 21 Street SW,Calgary,AB,T3E1R9,-114.1135205,51.00792788
Apostles of Jesus,Separate School,NE,15 Skyview Ranch Street NE,Calgary,AB,T3N1H6,-113.9565131,51.15841731
Captain Nichola Goddard,Public School,NW,405 Panatella Boulevard NW,Calgary,AB,T3K0P3,-114.0886788,51.16245093
St. James,Separate School,SW,2227 58 Ave SW,Calgary,AB,T3E1N6,-114.1136684,51.00114196
James Short Memorial,Public School,SE,6333 5 Avenue SE,Calgary,AB,T2A3V7,-113.9427983,51.04786054
Mayland Heights,Public School,NE,2324 Maunsell Drive NE,Calgary,AB,T2E6A2,-114.0072928,51.05895181
Bob Edwards,Public School,NE,4424 Marlborough Drive NE,Calgary,AB,T2A2Z5,-113.9687737,51.0599294
Briar Hill,Public School,NW,1233 21 Street NW,Calgary,AB,T2N2L8,-114.1114185,51.0631133
Monsignor J.J. O'Brien,Separate School,SW,99 Bridlewood Rd SW,Calgary,AB,T2Y4J5,-114.10386,50.9015676
Sir Wilfrid Laurier,Public School,SE,819 32 Street SE,Calgary,AB,T2A0Y9,-113.9893061,51.04573477
Horizon Heritage Arabic,Private School,ok,Unit P55 1610 - 37 St. SW PO Box 34028 Westbrook,Calgary,AB,T3C3P1,-114.1398144,51.03967371
Menno Simons Christian,Public School,SW,7000 Elkton Drive SW,Calgary,AB,T3H4Y7,-114.188501,51.02420032
Bowness High,Public School,NW,4627 77 Street NW,Calgary,AB,T3B2N6,-114.200251,51.09317526
Northeast Elementary Campus,Charter,NE,1140 Mayland Drive NE,Calgary,AB,T2E6C8,-114.0112768,51.06418734
Sir John A. Macdonald,Public School,NW,6600 4 Street NW,Calgary,AB,T2K1C2,-114.0700457,51.11147702
Bishop Kidd,Separate School,SE,1420 28 St SE,Calgary,AB,T2A0Y8,-113.9921283,51.0405772
Calgary Christian,Public School,SW,2839 - 49 Street SW,Calgary,AB,T3E3X9,-114.1589506,51.02746775
River Valley School ECS,Private School,NW,3127 Bowwood Drive NW,Calgary,AB,T3B2E7,-114.1743441,51.07946941
Calgary Chinese Private,Private School,.W,126 2nd Avenue S.W,Calgary,AB,T2P0B9,-114.0642879,51.05161459
Thorncliffe,Public School,NW,5646 Thornton Road NW,Calgary,AB,T2K3B9,-114.0670966,51.10232312
St. Gregory,Separate School,SW,5340 26 Ave SW,Calgary,AB,T3E0R6,-114.1604737,51.03113745
Western Canada High,Public School,SW,641 17 Avenue SW,Calgary,AB,T2S0B5,-114.0775476,51.03699475
North Haven,Public School,NW,4922 North Haven Drive NW,Calgary,AB,T2K2K2,-114.0866128,51.09750908
Mount Royal University - City Centre Campus,Post Secondary,,,Calgary,AB,T2P3T5,-114.0803108,51.04955283
St. Bede,Separate School,NW,333 Bermuda Dr NW,Calgary,AB,T3K2J5,-114.082846,51.13167374
O.S. Geiger,Public School,NE,100 Castlebrook Drive NE,Calgary,AB,T3J2J4,-113.9615405,51.10488651
Haultain Memorial,Public School,SE,605 Queensland Drive SE,Calgary,AB,T2J4S8,-114.0233187,50.93954417
River Valley,Private School,NW,3127 Bowwood Drive NW,Calgary,AB,T3B2E7,-114.1743441,51.07946941
John W. Costello Catholic,Separate School,SW,300 Strathcona Dr SW,Calgary,AB,T3H1N9,-114.1807075,51.04883256
Our Lady of Fatima,Separate School,NE,6320 Taralea Pk NE,Calgary,AB,T3J5C4,-113.9379102,51.11632175
Renfrew Educational Services-Bowness Centre,Private School,NE,2050 - 21 Street NE,Calgary,AB,T3B2B2,-114.2119244,51.09632928
Nellie McClung,Public School,SW,2315 Palliser Drive SW,Calgary,AB,T2V3S4,-114.1130138,50.9684953
Senator Patrick Burns,Public School,NW,2155 Chilcotin Road NW,Calgary,AB,T2L0X2,-114.1155367,51.0882111
Renfrew Educational Services - Park Place Centre,Private School,NE,2050 - 21 Street NE,Calgary,AB,T2E6S5,-114.0082917,51.06962096
St. Sylvester,Separate School,NW,7318 Silver Springs Blvd NW,Calgary,AB,T3B4N1,-114.1942714,51.10926175
Ian Bazalgette,Public School,SE,3909 26 Avenue SE,Calgary,AB,T2B0C6,-113.9776781,51.02983255
Connect Charter,Charter,SW,5915 Lewis Drive SW,Calgary,AB,T3E5Z4,-114.1357584,51.00037352
Don Bosco,Separate School,SE,13615 Deer Ridge Dr SE,Calgary,AB,T2J6S7,-114.0182527,50.93130069
Hawkwood,Public School,NW,650 Hawkwood Boulevard NW,Calgary,AB,T3G2V7,-114.1787461,51.13065691
Queen Elizabeth,Public School,NW,402 18 Street NW,Calgary,AB,T2N2G5,-114.1019611,51.05545841
R.T. Alderman,Public School,SE,725 Mapleton Drive SE,Calgary,AB,T2J1S1,-114.0445879,50.96115938
St. Henry,Separate School,NW,7423 10 St NW,Calgary,AB,T2K1H5,-114.0801778,51.11759752
The Chinese Academy,Private School,NE,"#191, 1518 Centre Street NE",Calgary,AB,T2K1C2,-114.0701312,51.11279744
Earl Grey,Public School,SW,845 Hillcrest Avenue SW,Calgary,AB,T2T0Z1,-114.0826538,51.03087449
Somerset,Public School,SW,150 Somerset Manor SW,Calgary,AB,T2Y4S2,-114.0848851,50.89740583
Silver Springs,Public School,NW,7235 Silvermead Road NW,Calgary,AB,T3B3V1,-114.1908255,51.10571021
Deer Run,Public School,SE,2127 146 Avenue SE,Calgary,AB,T2J6P8,-114.0094545,50.92155543
Colonel Macleod,Public School,NE,1610 6 Street NE,Calgary,AB,T2E3Y9,-114.0476454,51.06618282
William Roper Hull,Public School,SW,2266 Woodpark Avenue SW,Calgary,AB,T2W2Z8,-114.1138325,50.94836265
North Middle School Campus,Charter,NE,211 McKnight Blvd. NE,Calgary,AB,T2E5S7,-114.060601,51.09545305
St. Peter,Separate School,SE,720 58 St SE,Calgary,AB,T2A5L9,-113.949107,51.04618504
"Almadina Language Charter Academy, Ogden Campus",Charter,SE,1919 - 76 Ave SE,Calgary,AB,T2C0G8,-114.0121229,50.98449658
Father Lacombe High,Separate School,SE,3615 Radcliffe Dr SE,Calgary,AB,T2A6B4,-113.9832464,51.04739732
Lycee Louis Pasteur,Private School,SW,4099 Garrison Blvd. SW,Calgary,AB,T2T6G2,-114.1144831,51.01764277
St. Kateri Tekakwitha,Separate School,NE,1005 Abbotsford Dr NE,Calgary,AB,T2A7N5,-113.9276608,51.0618538
St. Pius X,Separate School,NW,2312 18 St NW,Calgary,AB,T2M3T5,-114.1034063,51.07297253
Filipino Language and Cultural School of Calgary,Private School,NE,Bay 204 & 206 4656 Westwinds Dr NE,Calgary,AB,T3J3Z5,-113.9678004,51.10064698
Our Lady of Peace,Separate School,SW,14826 Millrise Hill SW,Calgary,AB,T2Y2B4,-114.0877057,50.91846778
Calgary Chinese Alliance,Private School,NE,150 Beddington Blvd. NE,Calgary,AB,T3K2E2,-114.0676255,51.12573264
Georges P. Vanier,Public School,NE,509 32 Avenue NE,Calgary,AB,T2E2H3,-114.0520691,51.08060531
William Aberhart High,Public School,NW,3009 Morley Trail NW,Calgary,AB,T2M4G9,-114.1153375,51.07866951
